#cP2022  3 26  6  0  0.00000000     576 d+D   IGb14 EXT AIUB
## 2202 540000.00000000   300.00000000 59664 0.2500000000000
+   77   G01G02G03G04G05G06G07G08G09G10G11G12G13G14G15G16G17
+        G18G19G20G21G22G23G24G25G26G27G28G29G30G31G32R01R02
+        R03R04R05R07R08R09R12R13R14R15R17R18R19R20R21R22R24
+        E01E02E03E04E05E07E08E09E10E11E12E13E14E15E18E19E21
+        E24E25E26E27E30E31E33E34E36  0  0  0  0  0  0  0  0
++         6  7  7  8  7  6  6  7  6  6  8  7  7  7  7  7  7
++         8  7  7  7  7  7  6  5  6  6  7  7  6  7  6  8  6
++         7  7  7  7  7  7  7  8  7  7  8  7  8  9  8  7  8
++         5  6  8  6  6  6  7  6  7  7  6  6  7  7  6  8  5
++         7  7  6  6  7  7  6  7  6  0  0  0  0  0  0  0  0
%c M  cc GPS ccc cccc cccc cccc cccc ccccc ccccc ccccc ccccc
%c cc cc ccc ccc cccc cccc cccc cccc ccccc ccccc ccccc ccccc
%f  1.2500000  1.025000000  0.00000000000  0.000000000000000
%f  0.0000000  0.000000000  0.00000000000  0.000000000000000
%i    0    0    0    0      0      0      0      0         0
%i    0    0    0    0      0      0      0      0         0
/* Center for Orbit Determination in Europe (CODE)          
/* Ultra-rapid GRE orbits starting year-day 22085 06 hour   
/* Observed/predicted: 25/23 hours (data used up to 086G)   
/* PCV:IGS14      OL/AL:FES2014b NONE     YN ORB:CoN CLK:BRD
*  2022  3 26 12 50  0.00000000
PG01 -19368.384809 -13875.149792 -12390.233574    399.776895
PG02  -2193.384011  15266.227524  22281.050488   -652.654356
PG03 -12917.906198 -20811.493103  10305.819082   -180.288931
PG04 -10537.664258 -10962.124751  21784.617929   -180.855561
PG05   4765.045709  25622.656124   4522.107058    -76.040731
PG06 -18315.815682   7317.606643  17894.522679    244.458828
PG07 -26140.562542  -5500.134022  -2126.724612    317.843997
PG08  -1576.441209 -17906.693645 -19465.847405    -61.373971
PG09 -18514.545921   -111.121612  18987.489132   -347.603713
PG10  13347.057784  -7136.441151 -21654.199746   -358.768032
PG11  -3247.781289  14877.258325  21759.184531    -55.195356
PG12   9668.332646  23656.351511   7202.167057   -190.715055
PG13  -8064.193723  19826.078499 -15770.710107    283.325274
PG14 -14328.848551   6002.698321 -21542.684081    -97.399754
PG15   4730.676262  17709.285946 -19527.668844    -73.838595
PG16   1193.075880 -24948.625175   8039.066276   -484.966612
PG17 -21857.373920  13277.091501  -6840.493703    592.243847
PG18  25902.619297   5527.345880  -2642.478725    210.864161
PG19 -20705.247720  16466.061262   -383.039305    136.064908
PG20   -519.840829  22961.175544  13540.820993    516.133210
PG21 -10841.268513 -15144.623847 -18520.288484    159.823595
PG22  18495.701472 -18710.379070   3220.621329    233.450277
PG23  16238.692949   5173.094677 -20406.059989     -9.985181
PG24  16395.119750  14631.979148 -15497.059454    264.203325
PG25  15849.725802  13019.857710  16736.491822    303.526107
PG26   7716.073260 -18029.827539  17685.378168    193.809541
PG27   9435.165593 -21433.381505 -12342.543819    166.010283
PG28 -10392.811027  15237.641706 -18681.931942    374.883826
PG29  17240.487504   2745.843956  19985.887529   -495.844630
PG30 -24468.150194   1090.389736 -10508.152762   -520.699262
PG31  16737.264821  -8885.729355  18667.120228   -170.637753
PG32  20406.494605 -16134.367668  -4683.994376    -92.393920
PR01 -12837.766981   7634.035062  20680.829832      7.364975
PR02 -10582.462060  22630.284349   5358.667673    513.605048
PR03  -1755.558991  22527.950022 -11840.494925     53.756828
PR04   7639.826079   9764.790677 -22260.812978    133.710386
PR05  12955.317315  -8260.478913 -20337.860152     90.045601
PR07   1256.336383 -22132.466766  12621.254087     33.133767
PR08  -7894.788330  -9615.672921  22325.741222    -64.256497
PR09   3376.214015 -12463.474790  22023.340591     46.401423
PR12 -15545.606255  -3172.685244 -19946.038245     17.613986
PR13  -4260.553372  11344.786351 -22466.239857    -19.989200
PR14  10616.292870  20205.010742 -11370.399119     75.819085
PR15  18425.095727  16634.338953   5890.068706     97.286779
PR17   1835.722535  10380.272958  23235.032705    512.611172
PR18  18181.726772   4523.419745  17292.090775    111.526287
PR19  25169.578854  -2490.493672   3292.183585   -183.021242
PR20  17200.997475  -9858.112416 -16012.237110    -67.416885
PR21  -3324.813857  -9999.497659 -23229.585762   -288.345855
PR22 -18942.031944  -4156.243566 -16645.254300   -172.985879
PR24 -16351.044321  10731.278792  16387.628511     86.170205
PE01   3102.775929  27325.345535 -10967.093994   -604.179368
PE02  -3222.099351 -27349.107435  10818.954014    288.743362
PE03   6879.712667 -25168.758263  13990.482626   -541.374722
PE04  10071.164429  14437.500235 -23787.288702   -992.830922
PE05  20114.072899 -21299.486404  -4228.299733   -196.772096
PE07 -21464.800356   5083.949608  19744.113130   -652.198473
PE08 -10297.694483 -14019.954489  23955.531329   -501.617517
PE09  21414.176587  -5468.611209 -19688.733584   -462.443405
PE10  27156.807961   8558.668788   8076.720958   -502.793832
PE11  29419.280769   2279.121619  -2194.750616   4130.302768
PE12  20630.201010  13386.487155  16454.794021   4694.434902
PE13 -29450.161083  -2655.042793   1511.735413    427.578293
PE14  21577.080140  -3123.463810  14519.025362  -1791.734642
PE15 -20575.746734 -13331.330678 -16588.324604    755.491908
PE18 -18895.628701  -8375.798759 -22535.122239  -1639.031056
PE19  -9032.475485  25482.059661 -12047.873957  -1956.669497
PE21 -10323.085213  15748.291672 -22846.400061   -724.766777
PE24  18856.577080   6997.279160  21709.289131   -526.468699
PE25  10495.727490 -15487.538219  22935.566063   -568.153984
PE26 -20189.545655  10085.965506  19160.441600   -956.871899
PE27 -18671.935783  -5528.249362 -22290.492369   -261.855959
PE30 -15443.667628 -24047.793634  -7680.365463   -379.588804
PE31  15970.326703  23389.834350   8622.199728   -494.104910
PE33   -419.003158  16103.054360  24837.345021   -458.206284
PE34    132.552943 -16130.143435 -24822.888633   -508.765803
PE36  20959.634268  -9508.847667 -18600.556607   -350.718748
EOF
